{
  "type": "FeatureCollection",
  "features": [
    {
      "type": "Feature",
      "properties": {
        "norad_id": 34389,
        "name": "COSMOS 2251 DEB",
        "group": "cosmos-2251-debris",
        "lat": -42.34545878041487,
        "lon": 79.00702987199932,
        "alt_km": 773.1757978048781,
        "timestamp": "2025-12-15T22:44:29.324466+00:00",
        "meta_object_name": "COSMOS 2251 DEB",
        "meta_object_id": "1993-036QE",
        "meta_epoch": "2025-12-15T04:08:40.816896",
        "meta_mean_motion": 14.41538778,
        "meta_eccentricity": 0.00290149,
        "meta_inclination": 74.0185,
        "meta_ra_of_asc_node": 245.3029,
        "meta_arg_of_pericenter": 356.8789,
        "meta_mean_anomaly": 168.1869,
        "meta_ephemeris_type": 0,
        "meta_classification_type": "U",
        "meta_norad_cat_id": 34389,
        "meta_element_set_no": 999,
        "meta_rev_at_epoch": 88047,
        "meta_bstar": 0.00037660145,
        "meta_mean_motion_dot": 1.203e-05,
        "meta_mean_motion_ddot": 0,
        "tle_line1": "1 34389U 93036QE  25349.17269464  .00001203  00000+0  37660-3 0  9990",
        "tle_line2": "2 34389  74.0185 245.3029 0029014 356.8789 168.1869 14.41538778880475"
      },
      "geometry": {
        "type": "Point",
        "coordinates": [
          79.00702987199932,
          -42.34545878041487
        ]
      }
    },
    {
      "type": "Feature",
      "properties": {
        "norad_id": 34396,
        "name": "COSMOS 2251 DEB",
        "group": "cosmos-2251-debris",
        "lat": 10.564409677279796,
        "lon": -65.29643829117765,
        "alt_km": 643.9686652382507,
        "timestamp": "2025-12-15T22:44:29.324477+00:00",
        "meta_object_name": "COSMOS 2251 DEB",
        "meta_object_id": "1993-036QM",
        "meta_epoch": "2025-12-15T09:02:34.019232",
        "meta_mean_motion": 14.74500145,
        "meta_eccentricity": 0.00056759,
        "meta_inclination": 74.0277,
        "meta_ra_of_asc_node": 118.8802,
        "meta_arg_of_pericenter": 159.2484,
        "meta_mean_anomaly": 221.0729,
        "meta_ephemeris_type": 0,
        "meta_classification_type": "U",
        "meta_norad_cat_id": 34396,
        "meta_element_set_no": 999,
        "meta_rev_at_epoch": 88385,
        "meta_bstar": 0.0014343439,
        "meta_mean_motion_dot": 9.522e-05,
        "meta_mean_motion_ddot": 0,
        "tle_line1": "1 34396U 93036QM  25349.37678263  .00009522  00000+0  14343-2 0  9995",
        "tle_line2": "2 34396  74.0277 118.8802 0005675 159.2484 221.0729 14.74500145883854"
      },
      "geometry": {
        "type": "Point",
        "coordinates": [
          -65.29643829117765,
          10.564409677279796
        ]
      }
    },
    {
      "type": "Feature",
      "properties": {
        "norad_id": 34400,
        "name": "COSMOS 2251 DEB",
        "group": "cosmos-2251-debris",
        "lat": -6.589470327615636,
        "lon": 14.344009791032871,
        "alt_km": 406.02988887691026,
        "timestamp": "2025-12-15T22:44:29.324487+00:00",
        "meta_object_name": "COSMOS 2251 DEB",
        "meta_object_id": "1993-036QR",
        "meta_epoch": "2025-12-15T04:14:20.640192",
        "meta_mean_motion": 15.54634614,
        "meta_eccentricity": 0.00044861,
        "meta_inclination": 73.9647,
        "meta_ra_of_asc_node": 17.9581,
        "meta_arg_of_pericenter": 263.9064,
        "meta_mean_anomaly": 96.164,
        "meta_ephemeris_type": 0,
        "meta_classification_type": "U",
        "meta_norad_cat_id": 34400,
        "meta_element_set_no": 999,
        "meta_rev_at_epoch": 90012,
        "meta_bstar": 0.0027206822,
        "meta_mean_motion_dot": 0.00184406,
        "meta_mean_motion_ddot": 0,
        "tle_line1": "1 34400U 93036QR  25349.17662778  .00184406  00000+0  27207-2 0  9991",
        "tle_line2": "2 34400  73.9647  17.9581 0004486 263.9064  96.1640 15.54634614900129"
      },
      "geometry": {
        "type": "Point",
        "coordinates": [
          14.344009791032871,
          -6.589470327615636
        ]
      }
    },
    {
      "type": "Feature",
      "properties": {
        "norad_id": 34409,
        "name": "COSMOS 2251 DEB",
        "group": "cosmos-2251-debris",
        "lat": -46.92251370071156,
        "lon": 138.53882592328887,
        "alt_km": 752.1195629240447,
        "timestamp": "2025-12-15T22:44:29.324498+00:00",
        "meta_object_name": "COSMOS 2251 DEB",
        "meta_object_id": "1993-036RA",
        "meta_epoch": "2025-12-15T07:24:52.943040",
        "meta_mean_motion": 14.58033427,
        "meta_eccentricity": 0.00799715,
        "meta_inclination": 74.0634,
        "meta_ra_of_asc_node": 301.9578,
        "meta_arg_of_pericenter": 15.5984,
        "meta_mean_anomaly": 103.6194,
        "meta_ephemeris_type": 0,
        "meta_classification_type": "U",
        "meta_norad_cat_id": 34409,
        "meta_element_set_no": 999,
        "meta_rev_at_epoch": 89230,
        "meta_bstar": 0.00027999973,
        "meta_mean_motion_dot": 1.314e-05,
        "meta_mean_motion_ddot": 0,
        "tle_line1": "1 34409U 93036RA  25349.30894610  .00001314  00000+0  28000-3 0  9996",
        "tle_line2": "2 34409  74.0634 301.9578 0079971  15.5984 103.6194 14.58033427892307"
      },
      "geometry": {
        "type": "Point",
        "coordinates": [
          138.53882592328887,
          -46.92251370071156
        ]
      }
    },
    {
      "type": "Feature",
      "properties": {
        "norad_id": 34410,
        "name": "COSMOS 2251 DEB",
        "group": "cosmos-2251-debris",
        "lat": -66.84582212665386,
        "lon": 117.95526303927544,
        "alt_km": 528.9547801594272,
        "timestamp": "2025-12-15T22:44:29.324508+00:00",
        "meta_object_name": "COSMOS 2251 DEB",
        "meta_object_id": "1993-036RB",
        "meta_epoch": "2025-12-15T04:54:51.850656",
        "meta_mean_motion": 15.19190303,
        "meta_eccentricity": 0.00219391,
        "meta_inclination": 73.7359,
        "meta_ra_of_asc_node": 256.486,
        "meta_arg_of_pericenter": 97.7462,
        "meta_mean_anomaly": 54.6754,
        "meta_ephemeris_type": 0,
        "meta_classification_type": "U",
        "meta_norad_cat_id": 34410,
        "meta_element_set_no": 999,
        "meta_rev_at_epoch": 89811,
        "meta_bstar": 0.0013972952,
        "meta_mean_motion_dot": 0.00029673,
        "meta_mean_motion_ddot": 0,
        "tle_line1": "1 34410U 93036RB  25349.20476679  .00029673  00000+0  13973-2 0  9998",
        "tle_line2": "2 34410  73.7359 256.4860 0021939  97.7462  54.6754 15.19190303898118"
      },
      "geometry": {
        "type": "Point",
        "coordinates": [
          117.95526303927544,
          -66.84582212665386
        ]
      }
    },
    {
      "type": "Feature",
      "properties": {
        "norad_id": 34412,
        "name": "COSMOS 2251 DEB",
        "group": "cosmos-2251-debris",
        "lat": -45.571976377157554,
        "lon": -58.50356354450746,
        "alt_km": 763.8947216783126,
        "timestamp": "2025-12-15T22:44:29.324519+00:00",
        "meta_object_name": "COSMOS 2251 DEB",
        "meta_object_id": "1993-036RD",
        "meta_epoch": "2025-12-15T08:01:45.579648",
        "meta_mean_motion": 14.4716683,
        "meta_eccentricity": 0.018725,
        "meta_inclination": 73.9482,
        "meta_ra_of_asc_node": 319.7295,
        "meta_arg_of_pericenter": 54.2001,
        "meta_mean_anomaly": 307.6397,
        "meta_ephemeris_type": 0,
        "meta_classification_type": "U",
        "meta_norad_cat_id": 34412,
        "meta_element_set_no": 999,
        "meta_rev_at_epoch": 87688,
        "meta_bstar": 0.00099409939,
        "meta_mean_motion_dot": 4.493e-05,
        "meta_mean_motion_ddot": 0,
        "tle_line1": "1 34412U 93036RD  25349.33455532  .00004493  00000+0  99410-3 0  9993",
        "tle_line2": "2 34412  73.9482 319.7295 0187250  54.2001 307.6397 14.47166830876882"
      },
      "geometry": {
        "type": "Point",
        "coordinates": [
          -58.50356354450746,
          -45.571976377157554
        ]
      }
    },
    {
      "type": "Feature",
      "properties": {
        "norad_id": 34413,
        "name": "COSMOS 2251 DEB",
        "group": "cosmos-2251-debris",
        "lat": -53.605680719145404,
        "lon": 101.911563354501,
        "alt_km": 809.9053535230287,
        "timestamp": "2025-12-15T22:44:29.324529+00:00",
        "meta_object_name": "COSMOS 2251 DEB",
        "meta_object_id": "1993-036RE",
        "meta_epoch": "2025-12-15T05:33:16.579296",
        "meta_mean_motion": 14.29120927,
        "meta_eccentricity": 0.00909294,
        "meta_inclination": 74.0307,
        "meta_ra_of_asc_node": 260.352,
        "meta_arg_of_pericenter": 336.358,
        "meta_mean_anomaly": 178.6116,
        "meta_ephemeris_type": 0,
        "meta_classification_type": "U",
        "meta_norad_cat_id": 34413,
        "meta_element_set_no": 999,
        "meta_rev_at_epoch": 87166,
        "meta_bstar": 0.00102875,
        "meta_mean_motion_dot": 2.702e-05,
        "meta_mean_motion_ddot": 0,
        "tle_line1": "1 34413U 93036RE  25349.23144189  .00002702  00000+0  10287-2 0  9991",
        "tle_line2": "2 34413  74.0307 260.3520 0090929 336.3580 178.6116 14.29120927871668"
      },
      "geometry": {
        "type": "Point",
        "coordinates": [
          101.911563354501,
          -53.605680719145404
        ]
      }
    }
  ]
}